$$SOE
2459580.500000000, A.D. 2022-Jan-01 00:00:00.0000, 3.204931586468210E+08, 3.071879887394142E+08, 2.239269894589201E+06,
2459587.500000000, A.D. 2022-Jan-08 00:00:00.0000, 3.145179321932911E+08, 3.161088662035583E+08, 2.249091585565299E+06,
2459594.500000000, A.D. 2022-Jan-15 00:00:00.0000, 3.083704960480404E+08, 3.248566362619395E+08, 2.257681165277272E+06,
2459601.500000000, A.D. 2022-Jan-22 00:00:00.0000, 3.020564580999206E+08, 3.334288685803909E+08, 2.265049990461603E+06,
2459608.500000000, A.D. 2022-Jan-29 00:00:00.0000, 2.955813912758715E+08, 3.418233170834256E+08, 2.271210035070568E+06,
2459615.500000000, A.D. 2022-Feb-05 00:00:00.0000, 2.889508265357436E+08, 3.500379131475277E+08, 2.276173999331921E+06,
2459622.500000000, A.D. 2022-Feb-12 00:00:00.0000, 2.821702484693938E+08, 3.580707577526827E+08, 2.279955135475680E+06,
2459629.500000000, A.D. 2022-Feb-19 00:00:00.0000, 2.752450921512502E+08, 3.659201149792194E+08, 2.282567104912102E+06,
2459636.500000000, A.D. 2022-Feb-26 00:00:00.0000, 2.681807399196085E+08, 3.735844061438509E+08, 2.284023927893072E+06,
2459643.500000000, A.D. 2022-Mar-05 00:00:00.0000, 2.609825182194533E+08, 3.810622039738802E+08, 2.284339960425705E+06,
2459650.500000000, A.D. 2022-Mar-12 00:00:00.0000, 2.536556947107686E+08, 3.883522267678578E+08, 2.283529872433871E+06,
2459657.500000000, A.D. 2022-Mar-19 00:00:00.0000, 2.462054756938846E+08, 3.954533325829011E+08, 2.281608622621179E+06,
2459664.500000000, A.D. 2022-Mar-26 00:00:00.0000, 2.386370038550988E+08, 4.023645134532519E+08, 2.278591427182198E+06,
2459671.500000000, A.D. 2022-Apr-02 00:00:00.0000, 2.309553563816272E+08, 4.090848895933052E+08, 2.274493711298227E+06,
2459678.500000000, A.D. 2022-Apr-09 00:00:00.0000, 2.231655436998038E+08, 4.156137035979113E+08, 2.269331018615872E+06,
2459685.500000000, A.D. 2022-Apr-16 00:00:00.0000, 2.152725091766710E+08, 4.219503153008969E+08, 2.263118899137199E+06,
2459692.500000000, A.D. 2022-Apr-23 00:00:00.0000, 2.072811284999191E+08, 4.280941983802555E+08, 2.255872980192095E+06,
2459699.500000000, A.D. 2022-Apr-30 00:00:00.0000, 1.991962068482114E+08, 4.340449364666429E+08, 2.247609208500534E+06,
2459706.500000000, A.D. 2022-May-07 00:00:00.0000, 1.910224768977185E+08, 4.398022167862744E+08, 2.238343821250170E+06,
2459713.500000000, A.D. 2022-May-14 00:00:00.0000, 1.827645990410189E+08, 4.453658243802177E+08, 2.228093166815251E+06,
2459720.500000000, A.D. 2022-May-21 00:00:00.0000, 1.744271617735718E+08, 4.507356376589234E+08, 2.216873623244882E+06,
2459727.500000000, A.D. 2022-May-28 00:00:00.0000, 1.660146817548005E+08, 4.559116243330319E+08, 2.204701580093533E+06,
2459734.500000000, A.D. 2022-Jun-04 00:00:00.0000, 1.575316038077106E+08, 4.608938374075878E+08, 2.191593432628274E+06,
2459741.500000000, A.D. 2022-Jun-11 00:00:00.0000, 1.489823009894480E+08, 4.656824112414000E+08, 2.177565575334251E+06,
2459748.500000000, A.D. 2022-Jun-18 00:00:00.0000, 1.403710747599219E+08, 4.702775576839210E+08, 2.162634392274201E+06,
2459755.500000000, A.D. 2022-Jun-25 00:00:00.0000, 1.317021552669992E+08, 4.746795622551832E+08, 2.146816238939583E+06,
2459762.500000000, A.D. 2022-Jul-02 00:00:00.0000, 1.229797018719789E+08, 4.788887803015245E+08, 2.130127397998869E+06,
2459769.500000000, A.D. 2022-Jul-09 00:00:00.0000, 1.142078042960078E+08, 4.829056333025552E+08, 2.112583987698406E+06,
2459776.500000000, A.D. 2022-Jul-16 00:00:00.0000, 1.053904843238896E+08, 4.867306064106184E+08, 2.094201916495711E+06,
2459783.500000000, A.D. 2022-Jul-23 00:00:00.0000, 9.653169585972658E+07, 4.903642472969267E+08, 2.074997091918737E+06,
2459790.500000000, A.D. 2022-Jul-30 00:00:00.0000, 8.763532341007215E+07, 4.938071629449541E+08, 2.054985602113158E+06,
2459797.500000000, A.D. 2022-Aug-06 00:00:00.0000, 7.870518258500472E+07, 4.970600150362964E+08, 2.034183593225211E+06,
2459804.500000000, A.D. 2022-Aug-13 00:00:00.0000, 6.974502178776306E+07, 5.001235166802778E+08, 2.012607143290490E+06,
2459811.500000000, A.D. 2022-Aug-20 00:00:00.0000, 6.075852351681706E+07, 5.029984299788145E+08, 1.990272235643744E+06,
2459818.500000000, A.D. 2022-Aug-27 00:00:00.0000, 5.174930534116948E+07, 5.056855636959203E+08, 1.967194766548961E+06,
2459825.500000000, A.D. 2022-Sep-03 00:00:00.0000, 4.272092079034144E+07, 5.081857709186897E+08, 1.943390555523813E+06,
2459832.500000000, A.D. 2022-Sep-10 00:00:00.0000, 3.367686024391965E+07, 5.104999467314894E+08, 1.918875352177829E+06,
2459839.500000000, A.D. 2022-Sep-17 00:00:00.0000, 2.462055184582949E+07, 5.126290258990668E+08, 1.893664836718231E+06,
2459846.500000000, A.D. 2022-Sep-24 00:00:00.0000, 1.555536249999205E+07, 5.145739805044935E+08, 1.867774604323447E+06,
2459853.500000000, A.D. 2022-Oct-01 00:00:00.0000, 6.484599183650160E+06, 5.163358175159910E+08, 1.841220109379262E+06,
2459860.500000000, A.D. 2022-Oct-08 00:00:00.0000, -2.588489018039917E+06, 5.179155768012092E+08, 1.814016574651420E+06,
2459867.500000000, A.D. 2022-Oct-15 00:00:00.0000, -1.166070909111766E+07, 5.193143307850766E+08, 1.786179048517346E+06,
2459874.500000000, A.D. 2022-Oct-22 00:00:00.0000, -2.072892466954423E+07, 5.205331840629598E+08, 1.757722672406197E+06,
2459881.500000000, A.D. 2022-Oct-29 00:00:00.0000, -2.979005651537199E+07, 5.215732703703971E+08, 1.728662717250079E+06,
2459888.500000000, A.D. 2022-Nov-05 00:00:00.0000, -3.884108080689460E+07, 5.224357496483185E+08, 1.699014420152813E+06,
2459895.500000000, A.D. 2022-Nov-12 00:00:00.0000, -4.787902720149973E+07, 5.231218064689316E+08, 1.668792904680699E+06,
2459902.500000000, A.D. 2022-Nov-19 00:00:00.0000, -5.690097739435643E+07, 5.236326488646505E+08, 1.638013172556400E+06,
2459909.500000000, A.D. 2022-Nov-26 00:00:00.0000, -6.590406391277095E+07, 5.239695071593527E+08, 1.606690110102594E+06,
2459916.500000000, A.D. 2022-Dec-03 00:00:00.0000, -7.488546898203522E+07, 5.241336327874705E+08, 1.574838493168026E+06,
2459923.500000000, A.D. 2022-Dec-10 00:00:00.0000, -8.384242341879401E+07, 5.241262971167806E+08, 1.542472987828016E+06,
2459930.500000000, A.D. 2022-Dec-17 00:00:00.0000, -9.277220552851516E+07, 5.239487902470576E+08, 1.509608142528713E+06,
2459937.500000000, A.D. 2022-Dec-24 00:00:00.0000, -1.016721398988287E+08, 5.236024197158547E+08, 1.476258356272906E+06,
2459944.500000000, A.D. 2022-Dec-31 00:00:00.0000, -1.105395957322604E+08, 5.230885092160077E+08, 1.442437798872739E+06,
2459951.500000000, A.D. 2023-Jan-07 00:00:00.0000, -1.193719845969317E+08, 5.224083982847477E+08, 1.408160350689441E+06,
2459958.500000000, A.D. 2023-Jan-14 00:00:00.0000, -1.281667595630871E+08, 5.215634434592507E+08, 1.373439782858968E+06,
2459965.500000000, A.D. 2023-Jan-21 00:00:00.0000, -1.369214163703380E+08, 5.205550177227575E+08, 1.338289977929890E+06,
2459972.500000000, A.D. 2023-Jan-28 00:00:00.0000, -1.456334929591824E+08, 5.193845080421188E+08, 1.302724838712096E+06,
2459979.500000000, A.D. 2023-Feb-04 00:00:00.0000, -1.543005675773021E+08, 5.180533140235561E+08, 1.266758151950389E+06,
2459986.500000000, A.D. 2023-Feb-11 00:00:00.0000, -1.629202572562839E+08, 5.165628474923049E+08, 1.230403555666238E+06,
2459993.500000000, A.D. 2023-Feb-18 00:00:00.0000, -1.714902167221572E+08, 5.149145321712848E+08, 1.193674548809499E+06,
2460000.500000000, A.D. 2023-Feb-25 00:00:00.0000, -1.800081374772390E+08, 5.131098032954161E+08, 1.156584506045491E+06,
2460007.500000000, A.D. 2023-Mar-04 00:00:00.0000, -1.884717469512906E+08, 5.111501071790546E+08, 1.119146689999372E+06,
2460014.500000000, A.D. 2023-Mar-11 00:00:00.0000, -1.968788076933976E+08, 5.090369007358342E+08, 1.081374258544356E+06,
2460021.500000000, A.D. 2023-Mar-18 00:00:00.0000, -2.052271165573659E+08, 5.067716509002383E+08, 1.043280258955747E+06,
2460028.500000000, A.D. 2023-Mar-25 00:00:00.0000, -2.135145036769980E+08, 5.043558339023964E+08, 1.004877586622030E+06,
2460035.500000000, A.D. 2023-Apr-01 00:00:00.0000, -2.217388308063377E+08, 5.017909347880441E+08, 9.661789017268419E+05,
2460042.500000000, A.D. 2023-Apr-08 00:00:00.0000, -2.298979896400171E+08, 4.990784484072770E+08, 9.271966606215835E+05,
2460049.500000000, A.D. 2023-Apr-15 00:00:00.0000, -2.379899024500836E+08, 4.962198807646326E+08, 8.879433859688938E+05,
2460056.500000000, A.D. 2023-Apr-22 00:00:00.0000, -2.460125232291528E+08, 4.932167476756938E+08, 8.484317605154216E+05,
2460063.500000000, A.D. 2023-Apr-29 00:00:00.0000, -2.539638366057879E+08, 4.900705729802858E+08, 8.086744779427350E+05,
2460070.500000000, A.D. 2023-May-06 00:00:00.0000, -2.618418562939267E+08, 4.867828880932620E+08, 7.686841577360332E+05,
2460077.500000000, A.D. 2023-May-13 00:00:00.0000, -2.696446240534551E+08, 4.833552319996291E+08, 7.284733404594362E+05,
2460084.500000000, A.D. 2023-May-20 00:00:00.0000, -2.773702089275732E+08, 4.797891512025948E+08, 6.880545016182065E+05,
2460091.500000000, A.D. 2023-May-27 00:00:00.0000, -2.850167065631731E+08, 4.760861995945355E+08, 6.474400637011826E+05,
2460098.500000000, A.D. 2023-Jun-03 00:00:00.0000, -2.925822385562760E+08, 4.722479382761357E+08, 6.066424029560685E+05,
2460105.500000000, A.D. 2023-Jun-10 00:00:00.0000, -3.000649517983845E+08, 4.682759353090342E+08, 5.656738472990096E+05,
2460112.500000000, A.D. 2023-Jun-17 00:00:00.0000, -3.074630177344055E+08, 4.641717653408695E+08, 5.245466520093679E+05,
2460119.500000000, A.D. 2023-Jun-24 00:00:00.0000, -3.147746312119347E+08, 4.599370091572925E+08, 4.832729281640351E+05,
2460126.500000000, A.D. 2023-Jul-01 00:00:00.0000, -3.219980086687969E+08, 4.555732539880871E+08, 4.418645680622160E+05,
2460133.500000000, A.D. 2023-Jul-08 00:00:00.0000, -3.291313873331631E+08, 4.510820953890985E+08, 4.003333881501555E+05,
2460140.500000000, A.D. 2023-Jul-15 00:00:00.0000, -3.361730267126254E+08, 4.464651378701546E+08, 3.586913751213253E+05,
2460147.500000000, A.D. 2023-Jul-22 00:00:00.0000, -3.431212088497425E+08, 4.417239932331317E+08, 3.169506276680529E+05,
$$EOE